{
    "links": {
        "self": "http://www.neowsapp.com/rest/v1/neo/3647697?api_key=iIulBulltgU6a56xZRHN4H3l9WmuAYTsLGpBGhQ2"
    },
    "id": "3647697",
    "neo_reference_id": "3647697",
    "name": "(2013 RF32)",
    "designation": "2013 RF32",
    "nasa_jpl_url": "http://ssd.jpl.nasa.gov/sbdb.cgi?sstr=3647697",
    "absolute_magnitude_h": 28.7,
    "estimated_diameter": {
        "kilometers": {
            "estimated_diameter_min": 0.0048367649,
            "estimated_diameter_max": 0.0108153351
        },
        "meters": {
            "estimated_diameter_min": 4.8367648822,
            "estimated_diameter_max": 10.8153350678
        },
        "miles": {
            "estimated_diameter_min": 0.0030054254,
            "estimated_diameter_max": 0.0067203356
        },
        "feet": {
            "estimated_diameter_min": 15.8686516961,
            "estimated_diameter_max": 35.4833839037
        }
    },
    "is_potentially_hazardous_asteroid": false,
    "close_approach_data": [
        {
            "close_approach_date": "2013-09-05",
            "close_approach_date_full": "2013-Sep-05 11:26",
            "epoch_date_close_approach": 1378380360000,
            "relative_velocity": {
                "kilometers_per_second": "19.8456139158",
                "kilometers_per_hour": "71444.210096934",
                "miles_per_hour": "44392.6537682866"
            },
            "miss_distance": {
                "astronomical": "0.0011217209",
                "lunar": "0.4363494301",
                "kilometers": "167807.057374483",
                "miles": "104270.4703665454"
            },
            "orbiting_body": "Earth"
        },
        {
            "close_approach_date": "2013-09-05",
            "close_approach_date_full": "2013-Sep-05 16:50",
            "epoch_date_close_approach": 1378399800000,
            "relative_velocity": {
                "kilometers_per_second": "19.8196742334",
                "kilometers_per_hour": "71350.8272401514",
                "miles_per_hour": "44334.6292926374"
            },
            "miss_distance": {
                "astronomical": "0.0012781071",
                "lunar": "0.4971836619",
                "kilometers": "191202.099791877",
                "miles": "118807.4756348226"
            },
            "orbiting_body": "Moon"
        }
    ],
    "orbital_data": {
        "orbit_id": "4",
        "orbit_determination_date": "2017-04-06 08:44:47",
        "first_observation_date": "2013-09-03",
        "last_observation_date": "2013-09-04",
        "data_arc_in_days": 1,
        "observations_used": 7,
        "orbit_uncertainty": "9",
        "minimum_orbit_intersection": ".000875697",
        "jupiter_tisserand_invariant": "4.103",
        "epoch_osculation": "2456539.5",
        "eccentricity": ".6461243474049436",
        "semi_major_axis": "1.5940362636156",
        "inclination": "6.6782731008013",
        "ascending_node_longitude": "162.5004396706579",
        "orbital_period": "735.0988149706759",
        "perihelion_distance": ".5640906230471558",
        "perihelion_argument": "277.4484510240778",
        "aphelion_distance": "2.623981904184045",
        "perihelion_time": "2456591.798147286499",
        "mean_anomaly": "334.3880242496505",
        "mean_motion": ".4897300780091189",
        "equinox": "J2000",
        "orbit_class": {
            "orbit_class_type": "APO",
            "orbit_class_description": "Near-Earth asteroid orbits which cross the Earth’s orbit similar to that of 1862 Apollo",
            "orbit_class_range": "a (semi-major axis) > 1.0 AU; q (perihelion) < 1.017 AU"
        }
    },
    "is_sentry_object": false
}